TreeID,qLegalStatus,qSpecies,qAddress,qAddress,qSiteInfo,PlantType,qCaretaker,qCareAssistant,PlantDate,DBH,PlotSize,PermitNotes,XCoord,YCoord,Latitude,Longitude,Location,Fire Prevention Districts,Police Districts,Supervisor Districts,Zip Codes,Neighborhoods (old),Analysis Neighborhoods,,,
269179,DPW Maintained,Lyonothamnus floribundus subsp. asplenifolius :: Santa Cruz Ironwood,2616 Ocean Ave,2617 Ocean Ave,Sidewalk: Curb side : Cutout,Tree,CAN,,2/8/2024 0:00,3,3x6,Permit Number 794837,5991014,2094984,37.73191020438722,-122.473432,"(37.73191020438722, -122.47343196312605)",1,8,4,64,40,41,,,
272626,Permitted Site,Lyonothamnus floribundus subsp. asplenifolius :: Santa Cruz Ironwood,2550 Ocean Ave,2551 Ocean Ave,Sidewalk: Curb side : Cutout,Tree,CAN,,2/8/2024 0:00,3,3x6,Permit Number 794837,5991234.579,2094826.219,37.73148975,-122.4726579,"(37.7314897495916, -122.4726578811063)",1,8,4,64,40,41,,,
211378,DPW Maintained,Lyonothamnus floribundus subsp. asplenifolius :: Santa Cruz Ironwood,2666 Ocean Ave,2667 Ocean Ave,Sidewalk: Curb side : Cutout,Tree,CAN,,2/8/2024 0:00,3,Width 3ft,Permit Number 794837,5990751.888,2095123.647,37.732278457866336,-122.4743483,"(37.732278457866336, -122.47434831774638)",1,8,4,64,40,41,,,
272627,Permitted Site,Ceanothus thyrsiflorus :: Blueblossom Ceanothus,2529 Ocean Ave,2530 Ocean Ave,Sidewalk: Curb side : Cutout,Tree,CAN,,2/8/2024 0:00,3,3x6,Permit Number 794837,5991277.169,2094754.771,37.73129603659199,-122.4725054,"(37.73129603659199, -122.47250543451435)",1,8,4,64,40,41,,,
183263,DPW Maintained,Metrosideros excelsa :: New Zealand Xmas Tree,4398 Judah St,4399 Judah St,Sidewalk: Curb side : Cutout,Tree,DPW,,,11,Width 0ft,,5980953,2105563.309,37.76037027016682,-122.5089996,"(37.76037027016682, -122.50899960017827)",1,8,3,56,35,35,,,
211382,DPW Maintained,Lyonothamnus floribundus subsp. asplenifolius :: Santa Cruz Ironwood,2601 Ocean Ave,2602 Ocean Ave,Sidewalk: Curb side : Cutout,Tree,CAN,,2/8/2024 0:00,3,3x6,Permit Number 794837,5991018.583,2094892.515,37.731659274654476,-122.4734094,"(37.731659274654476, -122.47340944710633)",1,8,4,64,40,41,,,
269127,DPW Maintained,Lyonothamnus floribundus subsp. asplenifolius :: Santa Cruz Ironwood,2621 Ocean Ave,2622 Ocean Ave,Sidewalk: Curb side : Cutout,Tree,CAN,,2/8/2024 0:00,3,3x6,Permit Number 794837,5990946,2094900,37.73167562358821,-122.4736609,"(37.73167562358821, -122.47366092576429)",1,8,4,64,40,41,,,
249466,DPW Maintained,Eucalyptus citriodora :: Lemon scented eucalyptus,900x Van Ness Ave,900x Van Ness Ave,Median : Yard,Tree,DPW,,,25,,,6006522.497,2113836.875,37.78456168992645,-122.4211539,"(37.78456168992645, -122.4211539241383)",7,9,11,28858,36,36,,,
269176,DPW Maintained,Lyonothamnus floribundus subsp. asplenifolius :: Santa Cruz Ironwood,2536 Ocean Ave,2537 Ocean Ave,Sidewalk: Curb side : Cutout,Tree,CAN,,2/8/2024 0:00,3,3x6,Permit Number 794837,5991253,2094879,37.73163573799458,-122.472598,"(37.73163573799458, -122.47259804521035)",1,8,4,64,40,41,,,
272619,Section 806 (d),Magnolia grandiflora :: Southern Magnolia,927 Kansas St,928 Kansas St,Sidewalk: Curb side : Cutout,Tree,Private,,2/7/2024 0:00,3,3x3,,6011625.546,2103996.388,37.75782831466724,-122.4028067,"(37.75782831466724, -122.40280669043949)",10,3,8,28856,29,26,,,
272622,Section 806 (d),Magnolia grandiflora :: Southern Magnolia,939 Kansas St,940 Kansas St,Sidewalk: Curb side : Cutout,Tree,Private,,2/7/2024 0:00,3,3x3,Permit Number 795008,6011628.482,2103943.951,37.75768449698507,-122.4027929,"(37.75768449698507, -122.40279285092933)",10,3,8,28856,29,26,,,
269180,DPW Maintained,Lyonothamnus floribundus subsp. asplenifolius :: Santa Cruz Ironwood,2616 Ocean Ave,2617 Ocean Ave,Sidewalk: Curb side : Cutout,Tree,CAN,,2/8/2024 0:00,3,3x6,Permit Number 794837,5991014,2094984,37.73191020438722,-122.473432,"(37.73191020438722, -122.47343196312605)",1,8,4,64,40,41,,,
272628,Permitted Site,Ceanothus thyrsiflorus :: Blueblossom Ceanothus,2529 Ocean Ave,2530 Ocean Ave,Sidewalk: Curb side : Cutout,Tree,CAN,,2/8/2024 0:00,3,3x6,Permit Number 794837,5991277.169,2094754.771,37.73129603659199,-122.4725054,"(37.73129603659199, -122.47250543451435)",1,8,4,64,40,41,,,
272621,Section 806 (d),Magnolia grandiflora :: Southern Magnolia,935 Kansas St,936 Kansas St,Sidewalk: Curb side : Cutout,Tree,Private,,2/7/2024 0:00,3,3x3,Permit Number 795007,6011627.503,2103961.43,37.75773243623135,-122.4027975,"(37.75773243623135, -122.40279746409391)",10,3,8,28856,29,26,,,
272620,Section 806 (d),Magnolia grandiflora :: Southern Magnolia,931 Kansas St,932 Kansas St,Sidewalk: Curb side : Cutout,Tree,Private,,2/7/2024 0:00,3,3x3,Permit Number 787768,6011626.525,2103978.909,37.757780375449585,-122.4028021,"(37.757780375449585, -122.40280207726371)",10,3,8,28856,29,26,,,
272676,DPW Maintained,Acacia melanoxylon :: Blackwood Acacia,125 Maple St,126 Maple St,Sidewalk: Curb side : Yard,Tree,Private,,,,Width 5ft,,5996551,2115853,37.789530251014206,-122.4557975,"(37.789530251014206, -122.45579751512186)",11,6,1,54,31,31,,,
137010,DPW Maintained,Pistacia chinensis :: Chinese Pistache,3099 Washington St,3100 Washington St,Sidewalk: Curb side : Cutout,Tree,Private,,,3,Width 4ft,,6000011.701,2116065.938,37.79031292635645,-122.4438392,"(37.79031292635645, -122.44383920583293)",13,6,1,29490,27,30,,,
272659,DPW Maintained,Cotoneaster SPP :: Cotoneaster,40 Vega St,41 Vega St,Sidewalk: Curb side : Cutout,Tree,Private,FUF,,,,,5999425.037,2112388.553,37.78018230520343,-122.4456045,"(37.78018230520343, -122.44560445894594)",15,5,1,54,16,18,,,
272675,DPW Maintained,Acacia melanoxylon :: Blackwood Acacia,125 Maple St,126 Maple St,Sidewalk: Curb side : Yard,Tree,Private,,,,Width 5ft,,5996551,2115853,37.789530251014206,-122.4557975,"(37.789530251014206, -122.45579751512186)",11,6,1,54,31,31,,,
272658,DPW Maintained,Arbutus unedo :: Strawberry Tree,40 Vega St,41 Vega St,Sidewalk: Property side : Yard,Tree,Private,FUF,,,,,5999425.037,2112388.553,37.78018230520343,-122.4456045,"(37.78018230520343, -122.44560445894594)",15,5,1,54,16,18,,,
265405,DPW Maintained,Acacia melanoxylon :: Blackwood Acacia,125 Maple St,126 Maple St,Sidewalk: Curb side : Cutout,Tree,Private,,,,Width 5ft,,5996548.449,2115828.385,37.78946252,-122.4558046,"(37.789462518433, -122.4558045597468)",11,6,1,54,31,31,,,
124923,DPW Maintained,Acacia melanoxylon :: Blackwood Acacia,125 Maple St,126 Maple St,Sidewalk: Curb side : Yard,Tree,Private,,,25,Width 5ft,,5996551,2115853,37.789530251014206,-122.4557975,"(37.789530251014206, -122.45579751512186)",11,6,1,54,31,31,,,
235677,DPW Maintained,Prunus cerasifera :: Cherry Plum,398 Church St,399 Church St,Sidewalk: Curb side : Cutout,Tree,Private,,2/13/2024 4:23,3,Width 4ft,,6004162.342,2106693.69,37.76481492049202,-122.4288098,"(37.76481492049202, -122.42880984998824)",8,4,5,28862,3,5,,,
105191,Prune Opt Out,Lagunaria patersonii :: Primrose Tree,699X 46th Ave,699X 46th Ave,Sidewalk: Curb side : Cutout,Tree,Private,,10/24/2016 0:00,3,3,Permit Number 795049,5981635.054,2111041.251,37.775451293275765,-122.5070471,"(37.775451293275765, -122.50704710127414)",11,6,2,55,26,29,,,
250621,Prune Opt Out,Corymbia ficifolia :: Red Flowering Gum,122 28th Ave,123 28th Ave,Sidewalk: Curb side : Yard,Tree,Private,,,18,Width 4ft,Permit Number 795048,5987113.383,2115127.177,37.7869912,-122.4883969,"(37.7869912030255, -122.48839686305037)",11,6,1,55,33,33,,,
141717,DPW Maintained,Lagunaria patersonii :: Primrose Tree,2515 TURK BLVD,2516 TURK BLVD,Sidewalk: Curb side : Cutout,Tree,Private,,,5,Width 0ft,,5998369.635,2111707.582,37.77825222,-122.4492065,"(37.778252224784, -122.44920648801174)",15,6,2,54,16,18,,,
272674,DPW Maintained,Acacia melanoxylon :: Blackwood Acacia,125 Maple St,126 Maple St,Sidewalk: Curb side : Yard,Tree,Private,,,,Width 5ft,,5996551,2115853,37.789530251014206,-122.4557975,"(37.789530251014206, -122.45579751512186)",11,6,1,54,31,31,,,
272653,Section 806 (d),Prunus serrulata :: Ornamental Cherry,326 Winding Way,327 Winding Way,Sidewalk: Property side : Yard,Tree,Private,,2/15/2024 0:00,3,4x4,Permit Number 787807,6001415.538,2086491.487,37.70918852427971,-122.436864,"(37.70918852427971, -122.43686397751466)",9,7,6,28861,5,7,,,
49212,DPW Maintained,Chiranthodendron pentadactylon :: Monkey Hand Tree,1901 Scott St,1902 Scott St,Sidewalk: Curb side : Cutout,Tree,Private,,2/9/2024 0:00,3,4x4,Permit Number 46298,6001466.469,2115088.024,37.78771069765659,-122.4387357,"(37.78771069765659, -122.43873571702862)",13,6,1,29490,27,30,,,
272660,DPW Maintained,Acacia melanoxylon :: Blackwood Acacia,40 Vega St,41 Vega St,Sidewalk: Property side : Yard,Tree,DPW,FUF,,,,,5999425.037,2112388.553,37.78018230520343,-122.4456045,"(37.78018230520343, -122.44560445894594)",15,5,1,54,16,18,,,
105189,Prune Opt Out,Lagunaria patersonii :: Primrose Tree,699X 46th Ave,699X 46th Ave,Sidewalk: Curb side : Cutout,Tree,Private,,10/24/2016 0:00,3,3,Permit Number 795049,5981634.449,2111075.871,37.77554631559615,-122.5070518,"(37.77554631559615, -122.5070517608414)",11,6,2,55,26,29,,,
272670,Significant Tree,Acer palmatum :: Japanese Maple,255 Chattanooga St,256 Chattanooga St,Back Yard : Yard,Tree,Private,,,,3x3,,6004808,2102186,37.75247438983687,-122.4262557,"(37.75247438983687, -122.42625573091804)",2,4,5,28862,22,22,,,
28903,DPW Maintained,Pittosporum undulatum :: Victorian Box,300 05th St,301 05th St,Sidewalk: Curb side : Cutout,Tree,Private,,2/11/2006 0:00,3,3x3,,6011671.184,2112073.937,37.78000997911828,-122.4032171,"(37.78000997911828, -122.40321705472739)",14,2,9,28856,34,34,,,
154000,Section 806 (d),Quercus suber :: Cork Oak,1657 La Salle Ave,1658 La Salle Ave,Sidewalk: Curb side : Cutout,Tree,Private,,11/2/2023 0:00,3,5x5,Permit Number 785563,6015063.601,2096476.93,37.73737282318547,-122.390391,"(37.73737282318547, -122.39039098575776)",10,3,8,58,1,1,,,
142127,DPW Maintained,Prunus cerasifera :: Cherry Plum,1221 SCOTT ST,1222 SCOTT ST,Sidewalk: Curb side : Cutout,Tree,Private,,,2,Width 0ft,,6002017.194,2111148.787,37.77692587,-122.4365483,"(37.7769258671602, -122.43654825263135)",15,5,11,29492,10,9,,,
272656,DPW Maintained,Arbutus 'Marina' :: Hybrid Strawberry Tree,40 Vega St,41 Vega St,Sidewalk: Curb side : Cutout,Tree,Private,FUF,,,,,5999425.037,2112388.553,37.78018230520343,-122.4456045,"(37.78018230520343, -122.44560445894594)",15,5,1,54,16,18,,,
272635,Undocumented,Tristaniopsis laurina :: Swamp Myrtle,1140 Ingerson Ave,1141 Ingerson Ave,Sidewalk: Curb side : Cutout,Tree,Private,,,,3x3,,6013475,2090417,37.720645239699714,-122.3954591,"(37.720645239699714, -122.39545913854745)",10,3,8,58,1,1,,,
78320,Section 806 (d),Crataegus phaenopyrum :: Washington Hawthorn,830 Olmstead St,831 Olmstead St,Sidewalk: Curb side : Cutout,Tree,Private,,12/29/2023 0:00,3,3x3,Permit Number 787720,6009222.352,2090505.207,37.72064998638407,-122.4101655,"(37.72064998638407, -122.41016549563984)",9,3,7,309,28,25,,,
272654,Section 806 (d),Prunus serrulata :: Ornamental Cherry,326 Winding Way,327 Winding Way,Sidewalk: Property side : Yard,Tree,Private,,2/15/2024 0:00,3,4x4,Permit Number 787807,6001415.538,2086491.487,37.70918852427971,-122.436864,"(37.70918852427971, -122.43686397751466)",9,7,6,28861,5,7,,,
244508,DPW Maintained,Olea europaea :: Olive Tree,470 Fillmore St,471 Fillmore St,Sidewalk: Curb side : Cutout,Tree,Private,,3/4/2022 10:04,3,Width 0ft,,6003685.205,2109943.016,37.77370976187783,-122.430692,"(37.77370976187783, -122.43069203187633)",7,9,11,29492,10,9,,,
235973,DPW Maintained,Prunus cerasifera :: Cherry Plum,349 Church St,350 Church St,Sidewalk: Curb side : Cutout,Tree,Private,,2/13/2024 4:31,3,Width 3ft,,6004217.226,2106876.253,37.765319302580515,-122.428633,"(37.765319302580515, -122.42863303609798)",8,4,5,28862,3,5,,,
237679,DPW Maintained,Prunus cerasifera :: Cherry Plum,445 Church St,446 Church St,Sidewalk: Curb side : Cutout,Tree,Private,,2/13/2024 9:33,3,Width 3ft,,6004246.936,2106306.592,37.763756830337556,-122.4284897,"(37.763756830337556, -122.42848966798566)",8,4,5,28862,3,5,,,
272643,Significant Tree,Juniperus chinensis :: Juniper,2610 Lake St,2611 Lake St,Sidewalk: Curb side : Cutout,Tree,Private,,2/15/2024 0:00,3,3x3,,5987336,2114673,37.785757148492245,-122.4875933,"(37.785757148492245, -122.48759329048505)",11,6,1,55,33,33,,,
272657,DPW Maintained,Corymbia ficifolia :: Red Flowering Gum,40 Vega St,41 Vega St,Sidewalk: Property side : Yard,Tree,DPW,FUF,,,,,5999425.037,2112388.553,37.78018230520343,-122.4456045,"(37.78018230520343, -122.44560445894594)",15,5,1,54,16,18,,,
272642,Significant Tree,Juniperus chinensis :: Juniper,2610 Lake St,2611 Lake St,Front Yard : Cutout,Tree,Private,,2/15/2024 0:00,3,3x3,,5987336,2114673,37.785757148492245,-122.4875933,"(37.785757148492245, -122.48759329048505)",11,6,1,55,33,33,,,
197722,DPW Maintained,Pinus radiata :: Monterey Pine,1300x De Haro St,1300x De Haro St,Median : Yard,Tree,DPW,,,16,,,6012261.818,2102149.042,37.75279141281019,-122.4004764,"(37.75279141281019, -122.40047642386962)",10,3,8,28856,29,26,,,
105190,Prune Opt Out,Lagunaria patersonii :: Primrose Tree,699X 46th Ave,699X 46th Ave,Sidewalk: Curb side : Cutout,Tree,Private,,10/24/2016 0:00,3,3,Permit Number 795049,5981635.136,2111057.614,37.77549622627087,-122.507048,"(37.77549622627087, -122.50704803283092)",11,6,2,55,26,29,,,
168032,Section 806 (d),Tristaniopsis laurina :: Swamp Myrtle,3099 Washington St,3100 Washington St,Sidewalk: Curb side : Cutout,Tree,Private,,2/16/2024 0:00,3,4x4,Permit Number 782983,5999942.44,2116058.273,37.790287928801675,-122.4440783,"(37.790287928801675, -122.44407829150273)",13,6,1,29490,27,30,,,
272641,Significant Tree,Juniperus chinensis :: Juniper,2610 Lake St,2611 Lake St,Front Yard : Cutout,Tree,Private,,2/15/2024 0:00,3,3x3,,5987336,2114673,37.785757148492245,-122.4875933,"(37.785757148492245, -122.48759329048505)",11,6,1,55,33,33,,,
45357,DPW Maintained,Magnolia grandiflora :: Southern Magnolia,37 05th Ave,38 05th Ave,Sidewalk: Curb side : Cutout,Tree,Private,,9/26/2023 0:00,3,,Permit Number 44182,5994229.91,2115359.099,37.78804065322105,-122.4637923,"(37.78804065322105, -122.46379231213261)",11,6,1,54,11,11,,,
272677,DPW Maintained,Acacia melanoxylon :: Blackwood Acacia,125 Maple St,126 Maple St,Sidewalk: Curb side : Yard,Tree,Private,,,,Width 5ft,,5996551,2115853,37.789530251014206,-122.4557975,"(37.789530251014206, -122.45579751512186)",11,6,1,54,31,31,,,
272667,Permitted Site,::,595 Bay St,596 Bay St,Sidewalk: Curb side : Cutout,Landscaping,Private,,2/16/2024 0:00,3,16.3x6,,6007944.434,2121313.837,37.80517163212064,-122.4167644,"(37.80517163212064, -122.41676437746814)",5,1,10,308,23,23,,,
88580,DPW Maintained,Prunus serrulata 'Kwanzan' :: Kwanzan Flowering Cherry,474 21st Ave,475 21st Ave,Sidewalk: Curb side : Cutout,Tree,Private,,7/31/2008 0:00,5,3x3,Permit Number 51522,5989397.98,2112106.217,37.77882952880576,-122.4802716,"(37.77882952880576, -122.4802715709482)",11,6,2,55,26,29,,,
154113,Section 806 (d),Afrocarpus gracilior :: Fern Pine,1780 McKinnon Ave,1781 McKinnon Ave,Sidewalk: Curb side : Cutout,Tree,Private,,11/10/2023 0:00,3,5x5,Permit Number 794858,6014460.796,2096643.85,37.73779769350131,-122.3924869,"(37.73779769350131, -122.39248685130534)",10,3,8,58,1,1,,,
229211,DPW Maintained,Magnolia champaca :: Champa,69 Belcher St,70 Belcher St,Sidewalk: Curb side : Cutout,Tree,Private,,2/13/2024 9:47,3,Width 3ft,,6003825.75,2107873.305,37.76803480279919,-122.4300582,"(37.76803480279919, -122.43005818814633)",7,9,5,28862,3,5,,,
272223,Section 806 (d),Afrocarpus gracilior :: Fern Pine,1784 McKinnon Ave,1785 McKinnon Ave,Sidewalk: Curb side : Cutout,Tree,Private,,11/10/2023 0:00,3,5x5,,6014423.518,2096657.393,37.73783281100306,-122.3926167,"(37.73783281100306, -122.392616689372)",10,3,8,58,1,1,,,
123542,DPW Maintained,Magnolia grandiflora :: Southern Magnolia,37 05th Ave,38 05th Ave,Sidewalk: Curb side : Yard,Tree,Private,,,3,Width 5ft,,5994230.387,2115336.743,37.787979297355754,-122.463789,"(37.787979297355754, -122.4637890377937)",11,6,1,54,11,11,,,
61321,DPW Maintained,Cercis occidentalis :: Western Redbud,1493 Kansas St,1494 Kansas St,Sidewalk: Property side : Yard,Tree,Private,FUF,2/14/2024 0:00,3,,Permit Number 794599,6011782.73,2101393.644,37.75069052546404,-122.4020801,"(37.75069052546404, -122.40208010572036)",10,3,8,28856,29,26,,,
220030,DPW Maintained,Jacaranda mimosifolia :: Jacaranda,4136 23rd St,4137 23rd St,Sidewalk: Curb side : Cutout,Tree,Private,,2/13/2024 0:00,3,Width 4ft,,6002251.889,2102392.928,37.75289775133368,-122.43511,"(37.75289775133368, -122.4351099786573)",2,4,5,28862,22,22,,,
272188,DPW Maintained,Lophostemon confertus :: Brisbane Box,1225 Mission Bay Blvd South,1226 Mission Bay Blvd South,Sidewalk: Curb side : Yard,Tree,Private,,,,,,6013802.383,2108531.614,37.770402351708135,-122.395596,"(37.770402351708135, -122.39559596947164)",14,3,9,310,20,4,,,
250622,Prune Opt Out,Corymbia ficifolia :: Red Flowering Gum,122 28th Ave,123 28th Ave,Sidewalk: Curb side : Yard,Tree,Private,,,15,Width 4ft,Permit Number 795048,5987113.08,2115137.654,37.78701994986974,-122.4883987,"(37.78701994986974, -122.4883986814495)",11,6,1,55,33,33,,,
272655,DPW Maintained,Arbutus unedo :: Strawberry Tree,40 Vega St,41 Vega St,Sidewalk: Curb side : Cutout,Tree,DPW,FUF,,,,,5999425.037,2112388.553,37.78018230520343,-122.4456045,"(37.78018230520343, -122.44560445894594)",15,5,1,54,16,18,,,
272699,Undocumented,Eucalyptus globulus :: Blue Gum,868 Ingerson Ave,869 Ingerson Ave,Sidewalk: Curb side : Yard,Tree,DPW,Private,,,3x3,,6014909,2089306,37.717674307583444,-122.3904246,"(37.717674307583444, -122.39042462076478)",10,3,8,58,1,1,,,
200140,DPW Maintained,Casuarina cunninghamiana :: Horsetail pine,700 Jamestown Ave,701 Jamestown Ave,Sidewalk: Curb side : Cutout,Tree,Private,DPW,,4,Width 0ft,,6015344.678,2088315.615,37.71497906166427,-122.3888496,"(37.71497906166427, -122.38884956146914)",10,3,8,58,1,1,,,
272703,Undocumented,Melaleuca quinquenervia :: Cajeput,660 Indiana St,661 Indiana St,Sidewalk: Curb side : Cutout,Tree,Private,,,,3x3,,6014852,2105523,37.76219968430659,-122.3917549,"(37.76219968430659, -122.3917549176968)",10,3,8,28856,29,26,,,
272711,Undocumented,Rhus lancea :: African Sumac,660 Indiana St,661 Indiana St,Sidewalk: Curb side : Cutout,Tree,Private,,,,3x3,,6014852,2105523,37.76219968430659,-122.3917549,"(37.76219968430659, -122.3917549176968)",10,3,8,28856,29,26,,,
247390,DPW Maintained,Ficus retusa nitida :: Banyan Fig,217 Scott St,218 Scott St,Sidewalk: Curb side : Cutout,Tree,Private,,,8,Width 0ft,,6002281.817,2109227.951,37.77166676348413,-122.4354954,"(37.77166676348413, -122.43549539828467)",15,5,11,29492,9,3,,,
272705,Undocumented,Melaleuca quinquenervia :: Cajeput,660 Indiana St,661 Indiana St,Sidewalk: Curb side : Cutout,Tree,Private,,,,3x3,,6014852,2105523,37.76219968430659,-122.3917549,"(37.76219968430659, -122.3917549176968)",10,3,8,28856,29,26,,,
272707,Undocumented,Melaleuca quinquenervia :: Cajeput,660 Indiana St,661 Indiana St,Sidewalk: Curb side : Cutout,Tree,Private,,,,3x3,,6014852,2105523,37.76219968430659,-122.3917549,"(37.76219968430659, -122.3917549176968)",10,3,8,28856,29,26,,,
272717,Significant Tree,Callistemon citrinus :: Lemon Bottlebrush,324 Elsie St,325 Elsie St,Front Yard : Yard,Tree,Private,,,,9x9,,6006520.404,2097303.663,37.73916523933607,-122.4199875,"(37.73916523933607, -122.41998750020083)",2,7,7,28859,2,2,,,
239726,DPW Maintained,Metrosideros excelsa :: New Zealand Xmas Tree,4449 23rd St,4450 23rd St,Sidewalk: Curb side : Cutout,Tree,Private,,,15,Width 4ft,,6000340.357,2102246.462,37.752386863572475,-122.4417099,"(37.752386863572475, -122.4417098855061)",2,4,5,28862,22,22,,,
272715,Undocumented,Populus trichocarpa :: Black Cottonwood Poplar,660 Indiana St,661 Indiana St,Sidewalk: Curb side : Cutout,Tree,Private,,,,3x3,,6014852,2105523,37.76219968430659,-122.3917549,"(37.76219968430659, -122.3917549176968)",10,3,8,28856,29,26,,,
272710,Undocumented,Rhus lancea :: African Sumac,660 Indiana St,661 Indiana St,Sidewalk: Curb side : Cutout,Tree,Private,,,,3x3,,6014852,2105523,37.76219968430659,-122.3917549,"(37.76219968430659, -122.3917549176968)",10,3,8,28856,29,26,,,
231312,Prune Opt Out,Metrosideros excelsa :: New Zealand Xmas Tree,182 28th St,183 28th St,Sidewalk: Curb side : Cutout,Tree,Private,,,13,Width 3ft,,6004746.555,2099607.918,37.74539210036314,-122.4262847,"(37.74539210036314, -122.42628468409961)",2,7,5,63,22,22,,,
272712,Undocumented,Rhus lancea :: African Sumac,660 Indiana St,661 Indiana St,Sidewalk: Curb side : Cutout,Tree,Private,,,,3x3,,6014852,2105523,37.76219968430659,-122.3917549,"(37.76219968430659, -122.3917549176968)",10,3,8,28856,29,26,,,
272706,Undocumented,Melaleuca quinquenervia :: Cajeput,660 Indiana St,661 Indiana St,Sidewalk: Curb side : Cutout,Tree,Private,,,,3x3,,6014852,2105523,37.76219968430659,-122.3917549,"(37.76219968430659, -122.3917549176968)",10,3,8,28856,29,26,,,
35740,DPW Maintained,Afrocarpus gracilior :: Fern Pine,9 Princeton St,10 Princeton St,Sidewalk: Curb side : Cutout,Tree,DPW,FUF,3/18/2000 0:00,12,,Permit Number 39014,6007525.017,2093953.733,37.73002361287995,-122.4162768,"(37.73002361287995, -122.41627679186699)",9,3,7,309,28,25,,,
272716,Section 806 (d),Ginkgo biloba :: Maidenhair Tree,2799 24th St,2800 24th St,Sidewalk: Curb side : Cutout,Tree,Private,,2/26/2024 0:00,3,5x5,,6010041.882,2102197.075,37.75279924957898,-122.4081568,"(37.75279924957898, -122.40815678871508)",2,4,7,28859,19,20,,,
272713,Undocumented,Rhus lancea :: African Sumac,660 Indiana St,661 Indiana St,Sidewalk: Curb side : Cutout,Tree,Private,,,,3x3,,6014852,2105523,37.76219968430659,-122.3917549,"(37.76219968430659, -122.3917549176968)",10,3,8,28856,29,26,,,
272701,Undocumented,Pinus radiata :: Monterey Pine,1385 25th St,1386 25th St,Side Yard : Yard,Tree,Private,,,,3x3,,6014589,2101888,37.75220415244907,-122.3924103,"(37.75220415244907, -122.39241028170305)",10,3,8,28856,1,1,,,
272704,Undocumented,Melaleuca quinquenervia :: Cajeput,660 Indiana St,661 Indiana St,Sidewalk: Curb side : Cutout,Tree,Private,,,,3x3,,6014852,2105523,37.76219968430659,-122.3917549,"(37.76219968430659, -122.3917549176968)",10,3,8,28856,29,26,,,
272709,Undocumented,Rhus lancea :: African Sumac,660 Indiana St,661 Indiana St,Sidewalk: Curb side : Cutout,Tree,Private,,,,3x3,,6014852,2105523,37.76219968430659,-122.3917549,"(37.76219968430659, -122.3917549176968)",10,3,8,28856,29,26,,,
272702,Undocumented,Melaleuca quinquenervia :: Cajeput,660 Indiana St,661 Indiana St,Sidewalk: Curb side : Cutout,Tree,Private,,,,3x3,,6014852,2105523,37.76219968430659,-122.3917549,"(37.76219968430659, -122.3917549176968)",10,3,8,28856,29,26,,,
272714,Undocumented,Rhus lancea :: African Sumac,660 Indiana St,661 Indiana St,Sidewalk: Curb side : Cutout,Tree,Private,,,,3x3,,6014852,2105523,37.76219968430659,-122.3917549,"(37.76219968430659, -122.3917549176968)",10,3,8,28856,29,26,,,
240567,DPW Maintained,Metrosideros excelsa :: New Zealand Xmas Tree,210 Douglass St,211 Douglass St,Sidewalk: Curb side : Cutout,Tree,Private,,,14,Width 3ft,,6001076.422,2105089.433,37.76023488284931,-122.4393682,"(37.76023488284931, -122.43936822445778)",2,4,5,28862,3,5,,,
272708,Undocumented,Melaleuca quinquenervia :: Cajeput,660 Indiana St,661 Indiana St,Sidewalk: Curb side : Cutout,Tree,Private,,,,3x3,,6014852,2105523,37.76219968430659,-122.3917549,"(37.76219968430659, -122.3917549176968)",10,3,8,28856,29,26,,,
272543,DPW Maintained,Prunus spp :: Cherry,1027 Clayton St,1028 Clayton St,Sidewalk: Property side : Yard,Tree,DPW,,,,3x3,,5998829,2106371,37.763625591490026,-122.4472332,"(37.763625591490026, -122.44723320283198)",15,5,11,29492,9,3,,,
189793,DPW Maintained,Ficus microcarpa nitida 'Green Gem' :: Indian Laurel Fig Tree 'Green Gem',308 Missouri St,309 Missouri St,Sidewalk: Curb side : Cutout,Tree,Private,,,13,Width 3ft,,6013424,2105617,37.76237841362737,-122.3967005,"(37.76237841362737, -122.39670045220612)",10,3,8,28856,29,26,,,
22895,DPW Maintained,Lophostemon confertus :: Brisbane Box,198 Valencia St,199 Valencia St,Sidewalk: Curb side : Cutout,Tree,Private,,3/2/1994 0:00,12,3X3,,6006027.212,2108592.427,37.770133775470065,-122.4224947,"(37.770133775470065, -122.42249466400958)",8,2,5,28853,19,20,,,
246918,DPW Maintained,Populus nigra 'Italica' :: Lombardy Poplar,845 Shrader St,846 Shrader St,Sidewalk: Property side : Yard,Tree,Private,,,22,Width 3ft,,5997638.105,2107510.958,37.76668750684282,-122.4514343,"(37.76668750684282, -122.45143434024344)",15,5,11,29492,9,3,,,
48829,DPW Maintained,Lophostemon confertus :: Brisbane Box,900 Van Ness Ave,901 Van Ness Ave,Sidewalk: Curb side : Cutout,Tree,Private,,6/9/2005 0:00,5,,Permit Number 46052,6006596.951,2113646.505,37.78404317860172,-122.4208828,"(37.78404317860172, -122.42088281899082)",7,9,9,28858,36,36,,,
27260,DPW Maintained,Platanus x hispanica :: Sycamore: London Plane,1300X Van Ness Ave,1300X Van Ness Ave,Sidewalk: Curb side : Cutout,Tree,DPW,,,14,3X3,,6006404.263,2115076.397,37.787958446359376,-122.421651,"(37.787958446359376, -122.42165104327916)",13,9,10,28858,21,21,,,
59653,DPW Maintained,Ficus microcarpa nitida 'Green Gem' :: Indian Laurel Fig Tree 'Green Gem',587 Vermont St,588 Vermont St,Sidewalk: Curb side : Cutout,Tree,Private,,3/18/1981 0:00,23,,Permit Number 19073,6011264.221,2105613.67,37.762248828236025,-122.4041701,"(37.762248828236025, -122.40417013016875)",8,3,8,28856,29,26,,,
104011,Undocumented,Tree(s) ::,1154 Stanyan St,1155 Stanyan St,Sidewalk: Curb side : Cutout,Tree,Private,,,6,3X3,,5997378,2106254,37.763221323239655,-122.4522433,"(37.763221323239655, -122.45224328845185)",15,5,11,29492,9,3,,,
253400,DPW Maintained,Alnus rhombifolia :: White Alder,1555 Evans Ave,1556 Evans Ave,Front Yard : Yard,Tree,Private,,,,3x3,,6015916,2098279,37.74236818722157,-122.3875695,"(37.74236818722157, -122.38756950643379)",10,3,8,58,1,1,,,
121261,Undocumented,Tree(s) ::,3498 16TH ST,3499 16TH ST,Sidewalk: Curb side : Cutout,Tree,Private,,,,,,6003565.7,2106565.7,37.764429704069016,-122.4308643,"(37.764429704069016, -122.43086434451577)",15,4,5,28862,3,5,,,
100598,Permitted Site,Tree(s) ::,401x Clementina St,401x Clementina St,Sidewalk: Curb side : Cutout,Tree,Private,,,,,,6011466.9,2112295.6,37.78060720394022,-122.4039394,"(37.78060720394022, -122.40393937159789)",14,2,9,28853,34,34,,,
245906,DPW Maintained,Acer spp :: Maple,200x Divisadero St,200x Divisadero St,Median : Cutout,Tree,DPW,,,3,Width 0ft,,6001865.915,2108842.863,37.770585778926886,-122.4369065,"(37.770585778926886, -122.43690645334624)",15,5,11,29492,9,3,,,
111170,Undocumented,Tree(s) ::,5 LUNADO WAY,6 LUNADO WAY,Front Yard : Yard,Tree,Private,,,,3x3,,5991435,2091370,37.722011430921505,-122.4717132,"(37.722011430921505, -122.47171321522138)",9,8,4,59,40,41,,,
225990,DPW Maintained,Ginkgo biloba :: Maidenhair Tree,2 Pearl St,3 Pearl St,:,Tree,Private,,,7,Width 2ft,,6005601.088,2108893.102,37.77093530794262,-122.42399,"(37.77093530794262, -122.42399000814045)",8,2,5,28853,19,20,,,
116140,Undocumented,Tree(s) ::,3800X 20th St,3800X 20th St,Sidewalk: Curb side : Cutout,Tree,Rec/Park,,,,,,6004661.926,2104258.884,37.758157784571274,-122.4269085,"(37.758157784571274, -122.42690849778732)",2,4,5,28862,3,5,,,
173740,DPW Maintained,Tree(s) ::,2500X Lyon St,2500X Lyon St,Median : Yard,Tree,Private,,,,3x3,,5999276,2117538,37.79431282739239,-122.4464906,"(37.79431282739239, -122.44649061769118)",13,9,1,57,27,30,,,
121591,Undocumented,::,162 Mangels Ave,163 Mangels Ave,Sidewalk: Property side : Yard,Tree,Private,,,,3x3,,6000339,2095263,37.73321185792213,-122.4412136,"(37.73321185792213, -122.44121356967223)",9,7,5,63,40,41,,,
107664,Undocumented,Melaleuca spp :: Melaleuca spp,900 CAROLINA ST,901 CAROLINA ST,Front Yard : Yard,Tree,Private,,,,,,6012372.4,2103715.1,37.757097631281816,-122.400204,"(37.757097631281816, -122.4002039869532)",10,3,8,28856,29,26,,,
264822,DPW Maintained,Melaleuca quinquenervia :: Cajeput,2 Harkness Ave,3 Harkness Ave,Sidewalk: Curb side : Cutout,Tree,DPW,,11/1/2020 0:00,3,4x6,,,,,,,,,,,,,,,
265896,Undocumented,Trachycarpus fortunei :: Windmill Palm,2 Fern St,3 Fern St,Sidewalk: Curb side : Cutout,Tree,Private,,,,3x3,,6007165,2115341,37.78872784789752,-122.4190378,"(37.78872784789752, -122.41903779932359)",13,9,10,28858,21,21,,,
271984,DPW Maintained,Olea europaea :: Olive Tree,2605 Diamond St,2606 Diamond St,Sidewalk: Curb side : Cutout,Tree,DPW,,,,,,6002286.569,2096627.95,37.73707044323479,-122.4345779,"(37.73707044323479, -122.43457786777114)",2,7,5,63,7,10,,,
265376,DPW Maintained,Melaleuca quinquenervia :: Cajeput,102 Bertha Ln,103 Bertha Ln,Sidewalk: Curb side : Cutout,Tree,DPW,,,,3x3,,6017415,2095180,37.73394186718193,-122.3821708,"(37.73394186718193, -122.38217082734135)",10,3,8,58,1,1,,,
261961,DPW Maintained,Cupressus macrocarpa :: Monterey Cypress,1X Portola Dr To Clipper St Connetion,1X Portola Dr To Clipper St Connetion,Sidewalk: Property side : Yard,Tree,DPW,,,,,,,,,,,,,,,,,,,
265805,Significant Tree,Pyrus calleryana :: Ornamental Pear,1497 Stevenson St,1498 Stevenson St,Sidewalk: Property side : Yard,Tree,Private,,,,,,,,,,,,,,,,,,,
262184,DPW Maintained,Lophostemon confertus :: Brisbane Box,550 Delta St,551 Delta St,Sidewalk: Curb side : Cutout,Tree,DPW,FUF,9/7/2019 0:00,3,,,,,,,,,,,,,,,,
259652,DPW Maintained,patanus racemosa ::,99x Cora St,99x Cora St,Sidewalk: Curb side : Cutout,Tree,DPW,FUF,6/1/2019 0:00,3,,,,,,,,,,,,,,,,
259622,DPW Maintained,patanus racemosa ::,1498x Visitacion Ave,1498x Visitacion Ave,Sidewalk: Curb side : Cutout,Tree,DPW,FUF,6/1/2019 0:00,3,,,,,,,,,,,,,,,,
78185,Section 806 (d),Tree(s) ::,811 Ashbury St,812 Ashbury St,Sidewalk: Curb side : Cutout,Tree,Private,,6/17/2000 0:00,,,,5999080,2107571,37.76693482884291,-122.4464514,"(37.76693482884291, -122.44645141154655)",15,5,11,29492,9,3,,,
259737,DPW Maintained,Arbutus 'Marina' :: Hybrid Strawberry Tree,100x Florida St,100x Florida St,Sidewalk: Curb side : Cutout,Tree,DPW,FUF,6/9/2018 0:00,3,,,,,,,,,,,,,,,,
259764,DPW Maintained,Acer rubrum :: Red Maple,2749X 24th St,2749X 24th St,Sidewalk: Curb side : Cutout,Tree,DPW,,3/27/2019 6:06,3,,,,,,,,,,,,,,,,
260589,DPW Maintained,Geijera parviflora :: Australian Willow,3099x Jennings St,3099x Jennings St,Sidewalk: Curb side : Cutout,Tree,DPW,Clean City,8/20/2020 0:00,3,,,,,,,,,,,,,,,,
259636,DPW Maintained,patanus racemosa ::,98x Arleta Ave,98x Arleta Ave,Sidewalk: Curb side : Cutout,Tree,DPW,FUF,6/1/2019 0:00,3,,,,,,,,,,,,,,,,
182257,DPW Maintained,::,1439 35th Ave,1440 35th Ave,Sidewalk: Curb side : Yard,Tree,Private,,,0,Width 0ft,,5985240.365,2105399.973,37.76017361,-122.4941598,"(37.7601736080068, -122.49415977445186)",1,8,3,56,35,35,,,
259763,DPW Maintained,Acer rubrum :: Red Maple,2749X 24th St,2749X 24th St,Sidewalk: Curb side : Cutout,Tree,DPW,,3/27/2019 6:09,3,,,,,,,,,,,,,,,,
261327,DPW Maintained,Acer rubrum :: Red Maple,800 Broadway,801 Broadway,Median : Cutout,Tree,DPW,,,,3x3,,6009530,2118420,37.79731492604099,-122.4110728,"(37.79731492604099, -122.41107277937455)",3,1,10,308,4,6,,,
266748,Undocumented,Yucca gloriosa :: Spanish Dagger,841 Dwight St,842 Dwight St,Sidewalk: Property side : Cutout,Tree,DPW,,,,,,6009102.461,2090910.715,37.72175670539016,-122.4106085,"(37.72175670539016, -122.41060854396412)",9,3,7,309,28,25,,,
267223,DPW Maintained,:: Tree,601X Rivera St,601X Rivera St,Sidewalk: Property side : Cutout,Tree,Private,,,,9x99,,,,,,,,,,,,,,,
228446,DPW Maintained,patanus racemosa ::,379 Haight St,380 Haight St,:,Tree,Private,,,5,Width 5ft,,6004344.902,2109415.2,37.772297860882475,-122.4283724,"(37.772297860882475, -122.4283724098624)",7,9,11,28852,10,9,,,
261956,DPW Maintained,Cupressus macrocarpa :: Monterey Cypress,1X Portola Dr To Clipper St Connetion,1X Portola Dr To Clipper St Connetion,Sidewalk: Property side : Yard,Tree,DPW,,,,,,,,,,,,,,,,,,,
266717,Permitted Site,Metrosideros excelsa :: New Zealand Xmas Tree,2001 39th Ave,2002 39th Ave,Sidewalk: Curb side : Cutout,Tree,Private,,11/8/2021 0:00,3,3x3,Permit Number 788818,,,,,,,,,,,,,,
259613,DPW Maintained,patanus racemosa ::,1000 Visitacion Ave,1001 Visitacion Ave,Sidewalk: Curb side : Cutout,Tree,DPW,FUF,6/1/2019 0:00,3,,,,,,,,,,,,,,,,
265951,Private,Tristaniopsis laurina 'Elegant' :: Small-leaf Tristania 'Elegant',190 Stanyan St,191 Stanyan St,Sidewalk: Curb side : Cutout,Tree,Private,,6/10/2021 0:00,3,3x3,,,,,,,,,,,,,,,
181728,DPW Maintained,Ficus retusa nitida :: Banyan Fig,1200X 29th Ave,1200X 29th Ave,Sidewalk: Curb side : Cutout,Tree,Private,,,5,Width 0ft,,5987140,2107054,37.76482608726718,-122.4877114,"(37.76482608726718, -122.48771144170446)",1,8,3,56,35,35,,,
272462,Section 806 (d),Agonis flexuosa 'After Dark' :: Peppermint willow 'After Dark',1101 Burrows St,1102 Burrows St,Sidewalk: Curb side : Cutout,Tree,Private,,12/29/2023 0:00,3,4x5,Permit Number 794720,,,,,,,,,,,,,,
260224,DPW Maintained,Lagunaria patersonii :: Primrose Tree,2201x 22nd Ave,2201x 22nd Ave,Sidewalk: Curb side : Cutout,Tree,DPW,FUF,10/20/2018 0:00,3,,,,,,,,,,,,,,,,
56650,Permitted Site,Tree(s) ::,455 Bright St,456 Bright St,Sidewalk: Curb side : Cutout,Tree,Private,,,,,,5993745.914696889,2090225.888873294,37.71900341166263,-122.463642,"(37.71900341166263, -122.46364202634791)",9,8,6,64,24,24,,,
19570,DPW Maintained,Cupressus macrocarpa :: Monterey Cypress,100 STAIRWAY1,101 STAIRWAY1,Sidewalk: Curb side : Cutout,Tree,DPW,,,48,100ST,,,,,,,,,,,,,,,
36561,Permitted Site,Tree(s) ::,,,Sidewalk: Curb side : Cutout,Tree,Private,,5/19/1998 0:00,,,Permit Number 39428,,,,,,,,,,,,,,
272568,Undocumented,Arbutus 'Marina' :: Hybrid Strawberry Tree,501x Sunrise Way,501x Sunrise Way,Sidewalk: Curb side : Cutout,Tree,Infrastructure Design and Construction,Housing Authority,2/1/2024 0:00,3,,,,,,,,,,,,,,,,
258119,DPW Maintained,Pinus canariensis :: Canary Island Pine,500X Clarendon Ave,500X Clarendon Ave,Median : Cutout,Tree,DPW,,5/26/2019 21:14,3,5x5,,,,,,,,,,,,,,,
44943,Permitted Site,Tree(s) ::,,,Sidewalk: Curb side : Cutout,Tree,Private,,4/25/2001 0:00,,,Permit Number 43922,,,,,,,,,,,,,,
265804,Significant Tree,Pyrus calleryana :: Ornamental Pear,1497 Stevenson St,1498 Stevenson St,Sidewalk: Property side : Yard,Tree,Private,,,,,,,,,,,,,,,,,,,
30483,Permitted Site,Tree(s) ::,,,Sidewalk: Curb side : Cutout,Tree,Private,,9/5/1956 0:00,,,Permit Number 147,,,,,,,,,,,,,,
265098,Undocumented,Syzygium paniculatum :: Brush Cherry,880 Urbano Dr,881 Urbano Dr,Sidewalk: Property side : Cutout,Tree,Private,,,,15x4,,5993935,2091989,37.723855383087184,-122.4631163,"(37.723855383087184, -122.46311629567016)",9,8,4,59,40,41,,,
19837,DPW Maintained,Pittosporum undulatum :: Victorian Box,100 STAIRWAY25,101 STAIRWAY25,Sidewalk: Curb side : Cutout,Tree,DPW,,,6,60X,,,,,,,,,,,,,,,
261387,DPW Maintained,Platanus x hispanica :: Sycamore: London Plane,600 Broadway,601 Broadway,Sidewalk: Curb side : Cutout,Tree,Private,,,,,,,,,,,,,,,,,,,
46142,Permitted Site,Lophostemon confertus :: Brisbane Box,,,Sidewalk: Curb side : Cutout,Tree,Private,,12/27/2001 0:00,,,Permit Number 44490,,,,,,,,,,,,,,
259337,DPW Maintained,Laurus x 'Saratoga' :: Hybrid Laurel,2x Silliman St,2x Silliman St,Sidewalk: Curb side : Cutout,Tree,DPW,FUF,4/27/2019 0:00,3,,,,,,,,,,,,,,,,
39972,Permitted Site,Acacia melanoxylon :: Blackwood Acacia,0 Steiner St,1 Steiner St,Sidewalk: Curb side : Cutout,Tree,Private,,,,,Permit Number 41235,,,,,,,,,,,,,,
65831,Permitted Site,Tree(s) ::,2200 North Point,2201 North Point,Sidewalk: Curb side : Cutout,Tree,Private,,5/7/1990 0:00,,,Permit Number 28821,,,,,,,,,,,,,,
19952,DPW Maintained,Eucalyptus Spp :: Eucalyptus,100 STAIRWAY39,101 STAIRWAY39,Sidewalk: Curb side : Cutout,Tree,DPW,,,12,25ST,,,,,,,,,,,,,,,
39945,Permitted Site,Quercus agrifolia :: Coast Live Oak,0 Ervine St,1 Ervine St,Sidewalk: Curb side : Cutout,Tree,Private,,1/25/1999 0:00,,,Permit Number 41215,,,,,,,,,,,,,,
173924,DPW Maintained,Lophostemon confertus :: Brisbane Box,500X Gough St,500X Gough St,Sidewalk: Curb side : Cutout,Tree,DPW,,10/5/2010 0:00,,3x3,,,,,,,,,,,,,,,
259626,DPW Maintained,patanus racemosa ::,1499x Visitacion Ave,1499x Visitacion Ave,Sidewalk: Curb side : Cutout,Tree,DPW,FUF,6/1/2019 0:00,3,,,,,,,,,,,,,,,,
259089,DPW Maintained,Tristaniopsis laurina :: Swamp Myrtle,1201 Visitacion Ave,1202 Visitacion Ave,Sidewalk: Curb side : Cutout,Tree,DPW,,6/1/2019 0:00,3,,,,,,,,,,,,,,,,
272097,DPW Maintained,Pinus halepensis :: Allepo Pine,101X Martin Ave,101X Martin Ave,Front Yard : Yard,Tree,DPW,,,,,,,,,,,,,,,,,,,
63329,Permitted Site,Tree(s) ::,225 Bessie St,226 Bessie St,Sidewalk: Curb side : Cutout,Tree,Private,,2/2/1987 0:00,,,Permit Number 23902,,,,,,,,,,,,,,
260912,DPW Maintained,Magnolia grandiflora 'Little Gem' :: Little Gem Magnolia,99x Belvedere St,99x Belvedere St,Sidewalk: Curb side : Cutout,Tree,DPW,FUF,9/21/2019 0:00,3,,,,,,,,,,,,,,,,
182499,DPW Maintained,::,1567 35th Ave,1568 35th Ave,Sidewalk: Curb side : Yard,Tree,Private,,,0,Width 0ft,,5985270.216,2104558.804,37.757865739279744,-122.4939945,"(37.757865739279744, -122.49399454063325)",1,8,3,56,35,35,,,
210531,DPW Maintained,Myoporum laetum :: Myoporum,47 Ralston St,48 Ralston St,Back Yard : Yard,Tree,Private,,,5,,,5992169.142,2088256.461,37.713504859237744,-122.468949,"(37.713504859237744, -122.46894902289046)",9,8,6,64,24,24,,,
44538,Permitted Site,Tree(s) ::,,,Sidewalk: Curb side : Cutout,Tree,Private,,4/29/2001 0:00,,,Permit Number 43835,,,,,,,,,,,,,,
272590,Undocumented,Lagunaria patersonii :: Primrose Tree,250 Malosi St,251 Malosi St,Sidewalk: Curb side : Cutout,Tree,Infrastructure Design and Construction,Housing Authority,2/1/2024 0:00,3,,,,,,,,,,,,,,,,
266455,Section 806 (d),Magnolia grandiflora 'Little Gem' :: Little Gem Magnolia,90X Ford St,90X Ford St,Sidewalk: Curb side : Cutout,Tree,Private,,9/24/2021 0:00,3,4x4,Permit Number 784745,,,,,,,,,,,,,,
20313,DPW Maintained,Pinus radiata :: Monterey Pine,101X Sunset Blvd,101X Sunset Blvd,Sidewalk: Curb side : Cutout,Tree,DPW,,,12,60,,,,,,,,,,,,,,,
271583,Section 806 (d),:: Tree,490 Parker Ave,491 Parker Ave,Front Yard : Yard,Tree,Private,,6/20/2023 0:00,3,,Permit Number 785003,,,,,,,,,,,,,,
261405,DPW Maintained,Prunus serrulata :: Ornamental Cherry,779 Broadway,780 Broadway,Sidewalk: Curb side : Cutout,Tree,Private,,,,,,,,,,,,,,,,,,,
260998,DPW Maintained,Cupressus macrocarpa :: Monterey Cypress,600X Lake Merced Blvd,600X Lake Merced Blvd,Sidewalk: Property side : Yard,Tree,SFUSD,,,,10x10,,,,,,,,,,,,,,,
260548,Planning Code 138.1 required,Lophostemon confertus :: Brisbane Box,1190 Valencia St,1191 Valencia St,Sidewalk: Curb side : Cutout,Tree,Private,,2/15/2018 0:00,3,3x3,Permit Number 776221,,,,,,,,,,,,,,
269519,Permitted Site,:: Tree,2890x Larkin St,2890x Larkin St,Sidewalk: Curb side : Cutout,Tree,Private,,11/30/2022 0:00,3,3x3,,,,,,,,,,,,,,,
19600,DPW Maintained,Cupressocyparis leylandii :: Leyland Cypress,100 STAIRWAY4,101 STAIRWAY4,Sidewalk: Curb side : Cutout,Tree,DPW,,,12,60,,,,,,,,,,,,,,,
34069,Permitted Site,Geijera parviflora :: Australian Willow,955 Kennedy Ave,956 Kennedy Ave,Sidewalk: Curb side : Cutout,Tree,Private,,7/5/1997 0:00,,,Permit Number 37965,,,,,,,,,,,,,,
44962,Permitted Site,Tree(s) ::,,,Sidewalk: Curb side : Cutout,Tree,Private,,4/25/2001 0:00,,,Permit Number 43922,,,,,,,,,,,,,,
48065,Permitted Site,Tree(s) ::,,,Sidewalk: Curb side : Cutout,Tree,Private,,7/17/2002 0:00,,,Permit Number 45761,,,,,,,,,,,,,,
44553,Permitted Site,Tree(s) ::,,,Sidewalk: Curb side : Cutout,Tree,Private,,4/29/2001 0:00,,,Permit Number 43835,,,,,,,,,,,,,,
45022,Permitted Site,Tree(s) ::,,,Sidewalk: Curb side : Cutout,Tree,Private,,4/25/2001 0:00,,,Permit Number 43922,,,,,,,,,,,,,,
48259,Permitted Site,Tree(s) ::,,,Sidewalk: Curb side : Cutout,Tree,Private,,7/17/2002 0:00,,,Permit Number 45761,,,,,,,,,,,,,,
255125,DPW Maintained,Corymbia ficifolia :: Red Flowering Gum,401X Brotherhood Way,401X Brotherhood Way,Sidewalk: Property side : Yard,Tree,DPW,,,,,,,,,,,,,,,,,,,
261769,DPW Maintained,Magnolia grandiflora :: Southern Magnolia,600X Columbus Ave,600X Columbus Ave,Sidewalk: Curb side : Cutout,Tree,DPW,,6/26/2020 11:00,3,4x4,,,,,,,,,,,,,,,
46535,Permitted Site,Tree(s) ::,73 Summer St,74 Summer St,Sidewalk: Curb side : Cutout,Tree,Private,,4/1/2002 0:00,,,Permit Number 44686,,,,,,,,,,,,,,
48208,Permitted Site,Tree(s) ::,,,Sidewalk: Curb side : Cutout,Tree,Private,,7/17/2002 0:00,,,Permit Number 45761,,,,,,,,,,,,,,
43487,Permitted Site,Melaleuca linariifolia :: Flaxleaf Paperbark,,,Sidewalk: Curb side : Cutout,Tree,Private,,7/19/2000 0:00,,,Permit Number 43169,,,,,,,,,,,,,,
44583,Permitted Site,Tree(s) ::,,,Sidewalk: Curb side : Cutout,Tree,Private,,4/29/2001 0:00,,,Permit Number 43835,,,,,,,,,,,,,,
255128,DPW Maintained,Corymbia ficifolia :: Red Flowering Gum,401X Brotherhood Way,401X Brotherhood Way,Sidewalk: Property side : Yard,Tree,DPW,,,,,,,,,,,,,,,,,,,
45989,Permitted Site,Tree(s) ::,,,Sidewalk: Curb side : Cutout,Tree,Private,,12/6/2001 0:00,,,Permit Number 44451,,,,,,,,,,,,,,
259278,DPW Maintained,Acer rubrum 'October Glory' :: Red October Glory Maple,1600x Underwood Ave,1600x Underwood Ave,Sidewalk: Curb side : Cutout,Tree,DPW,FUF,5/25/2019 0:00,3,,,,,,,,,,,,,,,,
272602,Undocumented,Lagunaria patersonii :: Primrose Tree,299 Malosi St,300 Malosi St,Sidewalk: Curb side : Cutout,Tree,Infrastructure Design and Construction,Housing Authority,2/1/2024 0:00,3,,,,,,,,,,,,,,,,
190652,DPW Maintained,patanus racemosa ::,310 Arkansas St,311 Arkansas St,:,Tree,Private,,,8,Width 3ft,,6012893.926,2105541.864,37.76214259043743,-122.3985285,"(37.76214259043743, -122.3985285201828)",10,3,8,28856,29,26,,,
65877,Permitted Site,Tree(s) ::,,,Sidewalk: Curb side : Cutout,Tree,Private,,6/8/1990 0:00,,,Permit Number 28876,,,,,,,,,,,,,,
19572,DPW Maintained,Eucalyptus Spp :: Eucalyptus,100 STAIRWAY1,101 STAIRWAY1,Sidewalk: Curb side : Cutout,Tree,DPW,,,24,100ST,,,,,,,,,,,,,,,
262057,DPW Maintained,Tree(s) ::,851X Alemany Blvd,851X Alemany Blvd,Side Yard : Yard,Tree,DPW,,,,3x3,,6004188,2094500,37.73133533043629,-122.4278522,"(37.73133533043629, -122.42785218061991)",9,7,6,28861,5,7,,,
48133,Permitted Site,Tree(s) ::,,,Sidewalk: Curb side : Cutout,Tree,Private,,7/17/2002 0:00,,,Permit Number 45761,,,,,,,,,,,,,,
251107,DPW Maintained,Ulmus parvifolia :: Chinese Elm,1700X Quesada Ave,1700X Quesada Ave,Median : Yard,Tree,DPW,,,,,,,,,,,,,,,,,,,
265408,Permitted Site,Platanus x hispanica :: Sycamore: London Plane,77X Jefferson St,77X Jefferson St,Sidewalk: Property side : Cutout,Tree,Private,,6/27/2007 0:00,,3x3,Permit Number 49393,,,,,,,,,,,,,,
272374,DPW Maintained,Eucalyptus polyanthemos :: Silver Dollar Eucalyptus,1101X Ingalls St,1101X Ingalls St,Sidewalk: Curb side : Cutout,Tree,Private,,,,,,,,,,,,,,,,,,,
253833,DPW Maintained,::,607 Eddy St,608 Eddy St,Sidewalk: Curb side : Cutout,Tree,Private,DPW,,,3x3,,,,,,,,,,,,,,,
272587,Undocumented,Lagunaria patersonii :: Primrose Tree,250 Malosi St,251 Malosi St,Sidewalk: Curb side : Cutout,Tree,Infrastructure Design and Construction,Housing Authority,2/1/2024 0:00,3,,,,,,,,,,,,,,,,
259643,DPW Maintained,patanus racemosa ::,241 Arleta Ave,242 Arleta Ave,Sidewalk: Curb side : Cutout,Tree,DPW,FUF,6/1/2019 0:00,3,,,,,,,,,,,,,,,,
44851,Permitted Site,Tree(s) ::,,,Sidewalk: Curb side : Cutout,Tree,Private,,4/25/2001 0:00,,,Permit Number 43922,,,,,,,,,,,,,,
260221,DPW Maintained,Lagunaria patersonii :: Primrose Tree,2201x 22nd Ave,2201x 22nd Ave,Sidewalk: Curb side : Cutout,Tree,DPW,FUF,10/20/2018 0:00,3,,,,,,,,,,,,,,,,
44671,Permitted Site,Tree(s) ::,,,Sidewalk: Curb side : Cutout,Tree,Private,,4/29/2001 0:00,,,Permit Number 43835,,,,,,,,,,,,,,
48216,Permitted Site,Tree(s) ::,,,Sidewalk: Curb side : Cutout,Tree,Private,,7/17/2002 0:00,,,Permit Number 45761,,,,,,,,,,,,,,
44588,Permitted Site,Tree(s) ::,,,Sidewalk: Curb side : Cutout,Tree,Private,,4/29/2001 0:00,,,Permit Number 43835,,,,,,,,,,,,,,
261404,DPW Maintained,Prunus serrulata :: Ornamental Cherry,754 Broadway,755 Broadway,Sidewalk: Curb side : Cutout,Tree,Private,,,,,,6009997.654,2118506.058,37.79757743376217,-122.4094606,"(37.79757743376217, -122.4094606454184)",3,1,10,308,4,6,,,
